start=new Date('2021-10-15T00:00:00.000Z').valueOf();
sats=[{"MEAN_ANOMALY":"263.6379","OBJECT_NAME":"STARLINK-1457","TIME_SYSTEM":"UTC","SEMIMAJOR_AXIS":"6925.348","ARG_OF_PERICENTER":"96.4791","DECAY_DATE":null,"NORAD_CAT_ID":"45674","LAUNCH_DATE":"2020-06-04","COUNTRY_CODE":"US","CLASSIFICATION_TYPE":"U","REF_FRAME":"TEME","CENTER_NAME":"EARTH","MEAN_ELEMENT_THEORY":"SGP4","BSTAR":"0.00016316000000","FILE":"3163138","SITE":"AFETR","OBJECT_TYPE":"PAYLOAD","PERIAPSIS":"546.112","REV_AT_EPOCH":"7649","MEAN_MOTION_DOT":"0.00002150","TLE_LINE1":"1 45674U 20035T   21287.68701659  .00002150  00000-0  16316-3 0  9996","RCS_SIZE":"LARGE","ECCENTRICITY":"0.00015900","APOAPSIS":"548.315","EPOCH":"2021-10-14T16:29:18.233376","EPHEMERIS_TYPE":"0","GP_ID":"187186797","MEAN_MOTION":"15.06400044","OBJECT_ID":"2020-035T","PERIOD":"95.592","INCLINATION":"53.0552","RA_OF_ASC_NODE":"80.7378","TLE_LINE2":"2 45674  53.0552  80.7378 0001590  96.4791 263.6379 15.06400044 76498","ELEMENT_SET_NO":"999","MEAN_MOTION_DDOT":"0.0000000000000"},{"ECCENTRICITY":"0.00014070","TLE_LINE1":"1 45675U 20035U   21287.41057634 -.00000214  00000-0  45152-5 0  9997","RCS_SIZE":"LARGE","OBJECT_ID":"2020-035U","GP_ID":"187151954","MEAN_MOTION":"15.06392270","EPHEMERIS_TYPE":"0","EPOCH":"2021-10-14T09:51:13.795776","APOAPSIS":"548.212","RA_OF_ASC_NODE":"81.9865","TLE_LINE2":"2 45675  53.0552  81.9865 0001407  95.5503 264.5646 15.06392270 76062","PERIOD":"95.593","INCLINATION":"53.0552","MEAN_MOTION_DDOT":"0.0000000000000","ELEMENT_SET_NO":"999","TIME_SYSTEM":"UTC","OBJECT_NAME":"STARLINK-1458","MEAN_ANOMALY":"264.5646","FILE":"3162342","BSTAR":"0.00000451520000","SITE":"AFETR","CENTER_NAME":"EARTH","MEAN_ELEMENT_THEORY":"SGP4","CLASSIFICATION_TYPE":"U","REF_FRAME":"TEME","LAUNCH_DATE":"2020-06-04","COUNTRY_CODE":"US","NORAD_CAT_ID":"45675","DECAY_DATE":null,"ARG_OF_PERICENTER":"95.5503","SEMIMAJOR_AXIS":"6925.372","OBJECT_TYPE":"PAYLOAD","MEAN_MOTION_DOT":"-0.00000214","REV_AT_EPOCH":"7606","PERIAPSIS":"546.263"},{"PERIAPSIS":"545.995","REV_AT_EPOCH":"7648","MEAN_MOTION_DOT":"-0.00000232","OBJECT_TYPE":"PAYLOAD","SEMIMAJOR_AXIS":"6925.369","ARG_OF_PERICENTER":"101.9249","DECAY_DATE":null,"COUNTRY_CODE":"US","LAUNCH_DATE":"2020-06-04","NORAD_CAT_ID":"45676","CLASSIFICATION_TYPE":"U","REF_FRAME":"TEME","MEAN_ELEMENT_THEORY":"SGP4","CENTER_NAME":"EARTH","SITE":"AFETR","FILE":"3163138","BSTAR":"0.00000336320000","MEAN_ANOMALY":"258.1941","OBJECT_NAME":"STARLINK-1460","TIME_SYSTEM":"UTC","ELEMENT_SET_NO":"999","MEAN_MOTION_DDOT":"0.0000000000000","INCLINATION":"53.0533","PERIOD":"95.593","TLE_LINE2":"2 45676  53.0533  80.6164 0001788 101.9249 258.1941 15.06393422 76484","RA_OF_ASC_NODE":"80.6164","APOAPSIS":"548.472","EPOCH":"2021-10-14T17:06:27.697248","EPHEMERIS_TYPE":"0","GP_ID":"187188299","MEAN_MOTION":"15.06393422","OBJECT_ID":"2020-035V","TLE_LINE1":"1 45676U 20035V   21287.71282057 -.00000232  00000-0  33632-5 0  9990","RCS_SIZE":"LARGE","ECCENTRICITY":"0.00017880"},{"ECCENTRICITY":"0.00016340","RCS_SIZE":"LARGE","TLE_LINE1":"1 45677U 20035W   21287.72391169  .00006099  00000-0  42813-3 0  9992","EPOCH":"2021-10-14T17:22:25.970016","APOAPSIS":"548.382","OBJECT_ID":"2020-035W","MEAN_MOTION":"15.06388072","GP_ID":"187188049","EPHEMERIS_TYPE":"0","PERIOD":"95.593","INCLINATION":"53.0566","TLE_LINE2":"2 45677  53.0566  80.5753 0001634 115.4799 244.6359 15.06388072 76527","RA_OF_ASC_NODE":"80.5753","MEAN_MOTION_DDOT":"0.0000000000000","ELEMENT_SET_NO":"999","OBJECT_NAME":"STARLINK-1392","MEAN_ANOMALY":"244.6359","TIME_SYSTEM":"UTC","LAUNCH_DATE":"2020-06-04","COUNTRY_CODE":"US","NORAD_CAT_ID":"45677","DECAY_DATE":null,"ARG_OF_PERICENTER":"115.4799","SEMIMAJOR_AXIS":"6925.385","SITE":"AFETR","FILE":"3163138","BSTAR":"0.00042813000000","MEAN_ELEMENT_THEORY":"SGP4","CENTER_NAME":"EARTH","CLASSIFICATION_TYPE":"U","REF_FRAME":"TEME","OBJECT_TYPE":"PAYLOAD","PERIAPSIS":"546.119","MEAN_MOTION_DOT":"0.00006099","REV_AT_EPOCH":"7652"},{"INCLINATION":"53.0541","PERIOD":"95.592","TLE_LINE2":"2 45678  53.0541  74.7696 0001704  92.0476 268.0709 15.06400376 76501","RA_OF_ASC_NODE":"74.7696","ELEMENT_SET_NO":"999","MEAN_MOTION_DDOT":"0.0000000000000","RCS_SIZE":"LARGE","TLE_LINE1":"1 45678U 20035X   21286.78856642  .00000210  00000-0  33000-4 0  9998","ECCENTRICITY":"0.00017040","APOAPSIS":"548.392","EPOCH":"2021-10-13T18:55:32.138688","EPHEMERIS_TYPE":"0","MEAN_MOTION":"15.06400376","GP_ID":"187187298","OBJECT_ID":"2020-035X","OBJECT_TYPE":"PAYLOAD","PERIAPSIS":"546.032","REV_AT_EPOCH":"7650","MEAN_MOTION_DOT":"0.00000210","MEAN_ANOMALY":"268.0709","OBJECT_NAME":"STARLINK-1393","TIME_SYSTEM":"UTC","SEMIMAJOR_AXIS":"6925.347","ARG_OF_PERICENTER":"92.0476","DECAY_DATE":null,"COUNTRY_CODE":"US","LAUNCH_DATE":"2020-06-04","NORAD_CAT_ID":"45678","CLASSIFICATION_TYPE":"U","REF_FRAME":"TEME","MEAN_ELEMENT_THEORY":"SGP4","CENTER_NAME":"EARTH","FILE":"3163138","BSTAR":"0.00003300000000","SITE":"AFETR"},{"CLASSIFICATION_TYPE":"U","REF_FRAME":"TEME","BSTAR":"0.00009653000000","FILE":"3163138","SITE":"AFETR","MEAN_ELEMENT_THEORY":"SGP4","CENTER_NAME":"EARTH","SEMIMAJOR_AXIS":"6925.370","NORAD_CAT_ID":"45679","LAUNCH_DATE":"2020-06-04","COUNTRY_CODE":"US","DECAY_DATE":null,"ARG_OF_PERICENTER":"94.9184","TIME_SYSTEM":"UTC","MEAN_ANOMALY":"265.1970","OBJECT_NAME":"STARLINK-1394","REV_AT_EPOCH":"7666","MEAN_MOTION_DOT":"0.00001156","PERIAPSIS":"546.234","OBJECT_TYPE":"PAYLOAD","EPHEMERIS_TYPE":"0","OBJECT_ID":"2020-035Y","MEAN_MOTION":"15.06393047","GP_ID":"187187548","APOAPSIS":"548.236","EPOCH":"2021-10-14T17:18:24.759360","RCS_SIZE":"LARGE","TLE_LINE1":"1 45679U 20035Y   21287.72111990  .00001156  00000-0  96530-4 0  9991","ECCENTRICITY":"0.00014450","MEAN_MOTION_DDOT":"0.0000000000000","ELEMENT_SET_NO":"999","RA_OF_ASC_NODE":"70.5844","TLE_LINE2":"2 45679  53.0555  70.5844 0001445  94.9184 265.1970 15.06393047 76666","PERIOD":"95.593","INCLINATION":"53.0555"},{"ELEMENT_SET_NO":"999","MEAN_MOTION_DDOT":"0.0000000000000","PERIOD":"95.592","INCLINATION":"53.0551","TLE_LINE2":"2 45680  53.0551  71.1498 0001706 104.6946 255.4232 15.06403435 76634","RA_OF_ASC_NODE":"71.1498","EPOCH":"2021-10-14T14:17:55.495680","APOAPSIS":"548.384","MEAN_MOTION":"15.06403435","GP_ID":"187187799","OBJECT_ID":"2020-035Z","EPHEMERIS_TYPE":"0","ECCENTRICITY":"0.00017060","TLE_LINE1":"1 45680U 20035Z   21287.59578120  .00001773  00000-0  13787-3 0  9997","RCS_SIZE":"LARGE","PERIAPSIS":"546.022","MEAN_MOTION_DOT":"0.00001773","REV_AT_EPOCH":"7663","OBJECT_TYPE":"PAYLOAD","ARG_OF_PERICENTER":"104.6946","DECAY_DATE":null,"COUNTRY_CODE":"US","LAUNCH_DATE":"2020-06-04","NORAD_CAT_ID":"45680","SEMIMAJOR_AXIS":"6925.338","MEAN_ELEMENT_THEORY":"SGP4","CENTER_NAME":"EARTH","BSTAR":"0.00013787000000","FILE":"3163138","SITE":"AFETR","CLASSIFICATION_TYPE":"U","REF_FRAME":"TEME","OBJECT_NAME":"STARLINK-1395","MEAN_ANOMALY":"255.4232","TIME_SYSTEM":"UTC"},{"MEAN_MOTION_DOT":"-0.00000074","REV_AT_EPOCH":"7665","PERIAPSIS":"546.509","OBJECT_TYPE":"PAYLOAD","MEAN_ELEMENT_THEORY":"SGP4","CENTER_NAME":"EARTH","FILE":"3163138","BSTAR":"0.00001393500000","SITE":"AFETR","CLASSIFICATION_TYPE":"U","REF_FRAME":"TEME","DECAY_DATE":null,"ARG_OF_PERICENTER":"104.8046","NORAD_CAT_ID":"45681","LAUNCH_DATE":"2020-06-04","COUNTRY_CODE":"US","SEMIMAJOR_AXIS":"6925.367","TIME_SYSTEM":"UTC","OBJECT_NAME":"STARLINK-1396","MEAN_ANOMALY":"255.3058","ELEMENT_SET_NO":"999","MEAN_MOTION_DDOT":"0.0000000000000","RA_OF_ASC_NODE":"70.8622","TLE_LINE2":"2 45681  53.0518  70.8622 0001045 104.8046 255.3058 15.06393911 76656","PERIOD":"95.593","INCLINATION":"53.0518","MEAN_MOTION":"15.06393911","GP_ID":"187188550","OBJECT_ID":"2020-035AA","EPHEMERIS_TYPE":"0","EPOCH":"2021-10-14T15:48:10.340064","APOAPSIS":"547.956","ECCENTRICITY":"0.00010450","TLE_LINE1":"1 45681U 20035AA  21287.65845301 -.00000074  00000-0  13935-4 0  9993","RCS_SIZE":"LARGE"},{"OBJECT_ID":"2020-035AB","GP_ID":"187186798","MEAN_MOTION":"15.06397824","EPHEMERIS_TYPE":"0","EPOCH":"2021-10-14T15:58:47.098560","APOAPSIS":"548.186","ECCENTRICITY":"0.00013950","TLE_LINE1":"1 45682U 20035AB  21287.66582290 -.00000062  00000-0  14732-4 0  9993","RCS_SIZE":"LARGE","MEAN_MOTION_DDOT":"0.0000000000000","ELEMENT_SET_NO":"999","RA_OF_ASC_NODE":"70.8379","TLE_LINE2":"2 45682  53.0568  70.8379 0001395 102.5414 257.5731 15.06397824 76641","PERIOD":"95.592","INCLINATION":"53.0568","BSTAR":"0.00001473200000","FILE":"3163138","SITE":"AFETR","CENTER_NAME":"EARTH","MEAN_ELEMENT_THEORY":"SGP4","CLASSIFICATION_TYPE":"U","REF_FRAME":"TEME","LAUNCH_DATE":"2020-06-04","COUNTRY_CODE":"US","NORAD_CAT_ID":"45682","ARG_OF_PERICENTER":"102.5414","DECAY_DATE":null,"SEMIMAJOR_AXIS":"6925.355","TIME_SYSTEM":"UTC","OBJECT_NAME":"STARLINK-1397","MEAN_ANOMALY":"257.5731","MEAN_MOTION_DOT":"-0.00000062","REV_AT_EPOCH":"7664","PERIAPSIS":"546.254","OBJECT_TYPE":"PAYLOAD"},{"SEMIMAJOR_AXIS":"6925.363","ARG_OF_PERICENTER":"97.2351","DECAY_DATE":null,"LAUNCH_DATE":"2020-06-04","COUNTRY_CODE":"US","NORAD_CAT_ID":"45683","REF_FRAME":"TEME","CLASSIFICATION_TYPE":"U","MEAN_ELEMENT_THEORY":"SGP4","CENTER_NAME":"EARTH","FILE":"3162303","BSTAR":"0.00007709500000","SITE":"AFETR","MEAN_ANOMALY":"262.8792","OBJECT_NAME":"STARLINK-1399","TIME_SYSTEM":"UTC","PERIAPSIS":"546.292","REV_AT_EPOCH":"7621","MEAN_MOTION_DOT":"0.00000867","OBJECT_TYPE":"PAYLOAD","APOAPSIS":"548.165","EPOCH":"2021-10-14T10:45:37.542816","EPHEMERIS_TYPE":"0","MEAN_MOTION":"15.06395211","GP_ID":"187150550","OBJECT_ID":"2020-035AC","TLE_LINE1":"1 45683U 20035AC  21287.44835119  .00000867  00000-0  77095-4 0  9994","RCS_SIZE":"LARGE","ECCENTRICITY":"0.00013520","ELEMENT_SET_NO":"999","MEAN_MOTION_DDOT":"0.0000000000000","PERIOD":"95.592","INCLINATION":"53.0615","RA_OF_ASC_NODE":"71.8117","TLE_LINE2":"2 45683  53.0615  71.8117 0001352  97.2351 262.8792 15.06395211 76216"}];
